STARLINK-4067           
1 52668U 22053N   26068.46675048  .00001617  00000+0  11971-3 0  9997
2 52668  53.2172 155.1239 0001336  78.6900 281.4243 15.08830839211012
LEMUR-2-AHMED-ASRAR     
1 60576U 24149DN  26068.73265438  .00013045  00000+0  79773-3 0  9992
2 60576  97.7021 152.9847 0001633  18.5035 341.6253 15.10376432 85541
